COMMENT,ORIGINATOR,NORAD_CAT_ID,OBJECT_NAME,OBJECT_TYPE,CLASSIFICATION_TYPE,INTLDES,EPOCH,EPOCH_MICROSECONDS,MEAN_MOTION,ECCENTRICITY,INCLINATION,RA_OF_ASC_NODE,ARG_OF_PERICENTER,MEAN_ANOMALY,EPHEMERIS_TYPE,ELEMENT_SET_NO,REV_AT_EPOCH,BSTAR,MEAN_MOTION_DOT,MEAN_MOTION_DDOT,FILE,TLE_LINE0,TLE_LINE1,TLE_LINE2,OBJECT_ID,OBJECT_NUMBER,SEMIMAJOR_AXIS,PERIOD,APOGEE,PERIGEE,DECAYED
GENERATED VIA SPACETRACK.ORG API,18 SPCS,52365,STARLINK-3874,PAYLOAD,U,22045AL,2022-10-28 16:50:47,961600,15.08846396,0.0002719,53.2163,301.7641,35.6502,324.4671,0,999,3053,3.0936e-05,2.04e-06,0,3637111,0 STARLINK-3874,1 52365U 22045AL  22301.70194400  .00000204  00000-0  30936-4 0  9998,2 52365  53.2163 301.7641 0002719  35.6502 324.4671 15.08846396 30533,2022-045AL,52365,6917.861,95.437,541.607,537.845,0
GENERATED VIA SPACETRACK.ORG API,18 SPCS,52365,STARLINK-3874,PAYLOAD,U,22045AL,2022-10-29 07:09:15,981696,15.0884513,0.0002646,53.2158,299.0856,33.5871,326.5289,0,999,3062,2.7032e-05,1.42e-06,0,3637366,0 STARLINK-3874,1 52365U 22045AL  22302.29810164  .00000142  00000-0  27032-4 0  9999,2 52365  53.2158 299.0856 0002646  33.5871 326.5289 15.08845130 30622,2022-045AL,52365,6917.865,95.437,541.56,537.899,0
GENERATED VIA SPACETRACK.ORG API,18 SPCS,52365,STARLINK-3874,PAYLOAD,U,22045AL,2022-10-29 07:09:15,981696,15.0884513,0.0002646,53.2158,299.0856,33.5871,326.5289,0,999,3062,2.7032e-05,1.42e-06,0,3637424,0 STARLINK-3874,1 52365U 22045AL  22302.29810164  .00000142  00000-0  27032-4 0  9999,2 52365  53.2158 299.0856 0002646  33.5871 326.5289 15.08845130 30622,2022-045AL,52365,6917.865,95.437,541.56,537.899,0
GENERATED VIA SPACETRACK.ORG API,18 SPCS,52365,STARLINK-3874,PAYLOAD,U,22045AL,2022-10-29 19:52:21,339264,15.08842594,0.0002659,53.2151,296.7065,31.8107,328.3045,0,999,3070,-2.5683e-05,-6.97e-06,0,3637863,0 STARLINK-3874,1 52365U 22045AL  22302.82802476 -.00000697  00000-0 -25683-4 0  9992,2 52365  53.2151 296.7065 0002659  31.8107 328.3045 15.08842594 30708,2022-045AL,52365,6917.872,95.437,541.577,537.898,0
GENERATED VIA SPACETRACK.ORG API,18 SPCS,52365,STARLINK-3874,PAYLOAD,U,22045AL,2022-10-30 07:00:03,846816,15.08816722,0.0002759,53.2155,294.6244,35.9956,324.1221,0,999,3077,0.00025008,3.691e-05,0,3637867,0 STARLINK-3874,1 52365U 22045AL  22303.29171119  .00003691  00000-0  25008-3 0  9992,2 52365  53.2155 294.6244 0002759  35.9956 324.1221 15.08816722 30777,2022-045AL,52365,6917.952,95.439,541.725,537.908,0
GENERATED VIA SPACETRACK.ORG API,18 SPCS,52365,STARLINK-3874,PAYLOAD,U,22045AL,2022-10-31 06:50:50,758080,15.0884184,0.0002522,53.2157,290.1649,43.665,316.4542,0,999,3092,-0.0001548,-2.752e-05,0,3638016,0 STARLINK-3874,1 52365U 22045AL  22304.28530970 -.00002752  00000-0 -15480-3 0  9998,2 52365  53.2157 290.1649 0002522  43.6650 316.4542 15.08841840 30920,2022-045AL,52365,6917.875,95.437,541.484,537.995,0
GENERATED VIA SPACETRACK.ORG API,18 SPCS,52365,STARLINK-3874,PAYLOAD,U,22045AL,2022-10-31 16:23:09,294144,15.08838238,0.0002457,53.2161,288.3807,37.806,322.3105,0,999,3098,8.0843e-05,9.98e-06,0,3639240,0 STARLINK-3874,1 52365U 22045AL  22304.68274646  .00000998  00000-0  80843-4 0  9991,2 52365  53.2161 288.3807 0002457  37.8060 322.3105 15.08838238 30981,2022-045AL,52365,6917.886,95.438,541.45,538.051,0
GENERATED VIA SPACETRACK.ORG API,18 SPCS,52365,STARLINK-3874,PAYLOAD,U,22045AL,2022-10-31 16:23:09,294144,15.08838238,0.0002457,53.2161,288.3807,37.806,322.3105,0,999,3098,8.0843e-05,9.98e-06,0,3639522,0 STARLINK-3874,1 52365U 22045AL  22304.68274646  .00000998  00000-0  80843-4 0  9991,2 52365  53.2161 288.3807 0002457  37.8060 322.3105 15.08838238 30981,2022-045AL,52365,6917.886,95.438,541.45,538.051,0
GENERATED VIA SPACETRACK.ORG API,18 SPCS,52365,STARLINK-3874,PAYLOAD,U,22045AL,2022-11-01 08:17:00,974688,15.08833315,0.0002421,53.2156,285.4059,39.6833,320.4336,0,999,3108,0.00013675,1.888e-05,0,3640409,0 STARLINK-3874,1 52365U 22045AL  22305.34515017  .00001888  00000-0  13675-3 0  9992,2 52365  53.2156 285.4059 0002421  39.6833 320.4336 15.08833315 31089,2022-045AL,52365,6917.901,95.438,541.441,538.091,0
GENERATED VIA SPACETRACK.ORG API,18 SPCS,52365,STARLINK-3874,PAYLOAD,U,22045AL,2022-11-01 16:13:57,180864,15.08829408,0.0002428,53.2155,283.92,39.1101,321.0066,0,999,3113,9.5061e-05,1.224e-05,0,3640366,0 STARLINK-3874,1 52365U 22045AL  22305.67635626  .00001224  00000-0  95061-4 0  9991,2 52365  53.2155 283.9200 0002428  39.1101 321.0066 15.08829408 31130,2022-045AL,52365,6917.913,95.438,541.457,538.098,0
GENERATED VIA SPACETRACK.ORG API,18 SPCS,52365,STARLINK-3874,PAYLOAD,U,22045AL,2022-11-01 16:13:57,180864,15.08829408,0.0002428,53.2155,283.92,39.1101,321.0066,0,999,3113,9.5061e-05,1.224e-05,0,3640431,0 STARLINK-3874,1 52365U 22045AL  22305.67635626  .00001224  00000-0  95061-4 0  9991,2 52365  53.2155 283.9200 0002428  39.1101 321.0066 15.08829408 31130,2022-045AL,52365,6917.913,95.438,541.457,538.098,0
GENERATED VIA SPACETRACK.ORG API,18 SPCS,52365,STARLINK-3874,PAYLOAD,U,22045AL,2022-11-02 03:21:40,92768,15.08821943,0.0002507,53.2158,281.8383,42.8843,317.2345,0,999,3120,1.4893e-05,-5.1e-07,0,3641178,0 STARLINK-3874,1 52365U 22045AL  22306.14004737 -.00000051  00000-0  14893-4 0  9999,2 52365  53.2158 281.8383 0002507  42.8843 317.2345 15.08821943 31205,2022-045AL,52365,6917.936,95.439,541.535,538.066,0
GENERATED VIA SPACETRACK.ORG API,18 SPCS,52365,STARLINK-3874,PAYLOAD,U,22045AL,2022-11-02 08:07:49,575072,15.08823406,0.0002394,53.2156,280.9457,41.1038,319.0135,0,999,3123,2.1457e-05,5.3e-07,0,3642416,0 STARLINK-3874,1 52365U 22045AL  22306.33876823  .00000053  00000-0  21457-4 0  9998,2 52365  53.2156 280.9457 0002394  41.1038 319.0135 15.08823406 31233,2022-045AL,52365,6917.931,95.439,541.452,538.14,0
GENERATED VIA SPACETRACK.ORG API,18 SPCS,52365,STARLINK-3874,PAYLOAD,U,22045AL,2022-11-03 04:47:48,657408,15.08852207,0.0002371,53.217,277.0797,46.2487,313.8701,0,999,3136,0.0002119,3.087e-05,0,3643377,0 STARLINK-3874,1 52365U 22045AL  22307.19986872  .00003087  00000-0  21190-3 0  9992,2 52365  53.2170 277.0797 0002371  46.2487 313.8701 15.08852207 31368,2022-045AL,52365,6917.843,95.437,541.348,538.068,0
GENERATED VIA SPACETRACK.ORG API,18 SPCS,52365,STARLINK-3874,PAYLOAD,U,22045AL,2022-11-03 07:58:35,474592,15.08851843,0.0002475,53.2161,276.4857,45.3785,314.7408,0,999,3138,0.0003364,5.071e-05,0,3643813,0 STARLINK-3874,1 52365U 22045AL  22307.33235503  .00005071  00000-0  33640-3 0  9994,2 52365  53.2161 276.4857 0002475  45.3785 314.7408 15.08851843 31385,2022-045AL,52365,6917.844,95.437,541.421,537.997,0
GENERATED VIA SPACETRACK.ORG API,18 SPCS,52365,STARLINK-3874,PAYLOAD,U,22045AL,2022-11-04 07:49:20,880768,15.08881757,0.0002482,53.2158,272.0251,38.6244,321.4926,0,999,3153,0.00070054,0.00010891,0,3644730,0 STARLINK-3874,1 52365U 22045AL  22308.32593612  .00010891  00000-0  70054-3 0  9998,2 52365  53.2158 272.0251 0002482  38.6244 321.4926 15.08881757 31538,2022-045AL,52365,6917.753,95.435,541.335,537.901,0
GENERATED VIA SPACETRACK.ORG API,18 SPCS,52365,STARLINK-3874,PAYLOAD,U,22045AL,2022-11-04 07:49:20,880768,15.08881757,0.0002482,53.2158,272.0251,38.6244,321.4926,0,999,3153,0.00070054,0.00010891,0,3644787,0 STARLINK-3874,1 52365U 22045AL  22308.32593612  .00010891  00000-0  70054-3 0  9998,2 52365  53.2158 272.0251 0002482  38.6244 321.4926 15.08881757 31538,2022-045AL,52365,6917.753,95.435,541.335,537.901,0
GENERATED VIA SPACETRACK.ORG API,18 SPCS,52365,STARLINK-3874,PAYLOAD,U,22045AL,2022-11-05 02:53:59,213472,15.08831841,0.0002143,53.2154,268.4578,36.742,323.3719,0,999,3165,-0.00051914,-8.539e-05,0,3645387,0 STARLINK-3874,1 52365U 22045AL  22309.12082423 -.00008539  00000-0 -51914-3 0  9992,2 52365  53.2154 268.4578 0002143  36.7420 323.3719 15.08831841 31657,2022-045AL,52365,6917.905,95.438,541.253,538.288,0
GENERATED VIA SPACETRACK.ORG API,18 SPCS,52365,STARLINK-3874,PAYLOAD,U,22045AL,2022-11-05 07:40:08,994720,15.08832459,0.0002175,53.2155,267.5651,38.5242,321.5905,0,999,3168,-0.00035322,-5.904e-05,0,3645109,0 STARLINK-3874,1 52365U 22045AL  22309.31954855 -.00005904  00000-0 -35322-3 0  9998,2 52365  53.2155 267.5651 0002175  38.5242 321.5905 15.08832459 31683,2022-045AL,52365,6917.903,95.438,541.273,538.264,0
GENERATED VIA SPACETRACK.ORG API,18 SPCS,52365,STARLINK-3874,PAYLOAD,U,22045AL,2022-11-05 14:01:41,347776,15.08836904,0.0002141,53.2156,266.3763,37.6195,322.4947,0,999,3172,-0.00022488,-3.865e-05,0,3646463,0 STARLINK-3874,1 52365U 22045AL  22309.58450634 -.00003865  00000-0 -22488-3 0  9996,2 52365  53.2156 266.3763 0002141  37.6195 322.4947 15.08836904 31725,2022-045AL,52365,6917.89,95.438,541.236,538.274,0
GENERATED VIA SPACETRACK.ORG API,18 SPCS,52365,STARLINK-3874,PAYLOAD,U,22045AL,2022-11-05 14:01:41,347776,15.08836904,0.0002141,53.2156,266.3763,37.6195,322.4947,0,999,3172,-0.00022488,-3.865e-05,0,3646512,0 STARLINK-3874,1 52365U 22045AL  22309.58450634 -.00003865  00000-0 -22488-3 0  9996,2 52365  53.2156 266.3763 0002141  37.6195 322.4947 15.08836904 31725,2022-045AL,52365,6917.89,95.438,541.236,538.274,0
GENERATED VIA SPACETRACK.ORG API,18 SPCS,52365,STARLINK-3874,PAYLOAD,U,22045AL,2022-11-06 05:55:33,89664,15.08833617,0.0002219,53.2159,263.4028,35.9919,324.1222,0,999,3182,-0.0001117,-2.065e-05,0,3647066,0 STARLINK-3874,1 52365U 22045AL  22310.24691076 -.00002065  00000-0 -11170-3 0  9995,2 52365  53.2159 263.4028 0002219  35.9919 324.1222 15.08833617 31825,2022-045AL,52365,6917.9,95.438,541.3,538.23,0
GENERATED VIA SPACETRACK.ORG API,18 SPCS,52365,STARLINK-3874,PAYLOAD,U,22045AL,2022-11-06 21:49:25,540032,15.08820423,0.0002235,53.2161,260.4291,35.1191,324.9948,0,999,3192,0.00022328,3.265e-05,0,3647287,0 STARLINK-3874,1 52365U 22045AL  22310.90932338  .00003265  00000-0  22328-3 0  9995,2 52365  53.2161 260.4291 0002235  35.1191 324.9948 15.08820423 31924,2022-045AL,52365,6917.94,95.439,541.351,538.259,0
